*******************************************************************************
 Revised: September 30, 2021           Uranus                               799
 
 PHYSICAL DATA:
  Mass x10^24 (kg)      = 86.813          Density (g/cm^3)       =  1.271
  Equat. radius (1 bar) = 25559+-4 km     Polar radius (km)      = 24973+-20
  Vol. Mean Radius (km) = 25362+-12       Flattening             =  0.02293
  Geometric Albedo      = 0.51
  Sid. rot. period (III)= 17.24+-0.01 h   Sid. rot. rate (rad/s) = -0.000101237
  Mean solar day, h     =~17.24           Rocky core mass (Mc/M) =  0.0012        
  GM (km^3/s^2)         = 5793951.256     GM 1-sigma (km^3/s^2)  = +-4.3 
  Equ. grav, ge (m/s^2) =  8.87           Pol. grav, gp (m/s^2)  =   9.19+-0.02
  Visual magnitude V(1,0)= -7.11
  Vis. mag. (opposition)=  +5.52          Obliquity to orbit     = 97.77 deg
  Sidereal orbit period = 84.0120465 y    Sidereal orbit period  = 30685.4 d
  Mean daily motion     = 0.01176904 dg/d Mean orbit velocity    =  6.8 km/s
  Atmos. temp. (1 bar)  =  76+-2 K        Escape speed, km/s     =  21.3           
  Aroche(ice)/Rp        =  2.20           Hill's sphere rad., Rp = 2700
                                 Perihelion   Aphelion    Mean
  Solar Constant (W/m^2)         4.09         3.39        3.71
  Maximum Planetary IR (W/m^2)   0.72         0.55        0.63
  Minimum Planetary IR (W/m^2)   0.72         0.55        0.63
*******************************************************************************


*******************************************************************************
Ephemeris / WWW_USER Thu May  5 15:48:19 2022 Pasadena, USA      / Horizons
*******************************************************************************
Target body name: Uranus (799)                    {source: ura116}
Center body name: Sun (10)                        {source: ura116}
Center-site name: BODY CENTER
*******************************************************************************
Start time      : A.D. 2017-Oct-14 00:00:00.0000 TDB
Stop  time      : A.D. 2018-Jan-02 00:00:00.0000 TDB
Step-size       : 60 minutes
*******************************************************************************
Center geodetic : 0.00000000,0.00000000,0.0000000 {E-lon(deg),Lat(deg),Alt(km)}
Center cylindric: 0.00000000,0.00000000,0.0000000 {E-lon(deg),Dxy(km),Dz(km)}
Center radii    : 696000.0 x 696000.0 x 696000.0 k{Equator, meridian, pole}    
Output units    : KM-S
Output type     : GEOMETRIC cartesian states
Output format   : 3 (position, velocity, LT, range, range-rate)
Reference frame : Ecliptic of J2000.0
*******************************************************************************
            JDTDB,            Calendar Date (TDB),        delta-T,                      X,                      Y,                      Z,                     VX,                     VY,                     VZ,                     LT,                     RG,                     RR,
******************************************************************************************************************************************************************************************************************************************************************************************
$$SOE
2458082.666666667, A.D. 2017-Nov-25 04:00:00.0000,      69.182955,  2.661023185316306E+09,  1.336597593018898E+09, -2.949180833779001E+07, -3.098173836737810E+00,  5.758227623035739E+00,  6.165735798323535E-02,  9.933495791009098E+03,  2.977987119719272E+09, -1.845869695135774E-01,
2458082.708333333, A.D. 2017-Nov-25 05:00:00.0000,      69.182956,  2.661012031822922E+09,  1.336618322591857E+09, -2.949158636818892E+07, -3.098211318950022E+00,  5.758201769216269E+00,  6.165895400075305E-02,  9.933493574471035E+03,  2.977986455217877E+09, -1.845804323068128E-01,
2458082.750000000, A.D. 2017-Nov-25 06:00:00.0000,      69.182957,  2.661000878195181E+09,  1.336639052071431E+09, -2.949136439430827E+07, -3.098248491621115E+00,  5.758175744456536E+00,  6.165972765722794E-02,  9.933491358012780E+03,  2.977985790740409E+09, -1.845736872034326E-01,
2458082.791666667, A.D. 2017-Nov-25 07:00:00.0000,      69.182957,  2.660989724434062E+09,  1.336659781457026E+09, -2.949114241918880E+07, -3.098285431331782E+00,  5.758149560797552E+00,  6.165963569917343E-02,  9.933489141636459E+03,  2.977985126287504E+09, -1.845667968087630E-01,
2458082.833333333, A.D. 2017-Nov-25 08:00:00.0000,      69.182958,  2.660978570540257E+09,  1.336680510748095E+09, -2.949092044601357E+07, -3.098322220441239E+00,  5.758123232138860E+00,  6.165864217066019E-02,  9.933486925343419E+03,  2.977984461859566E+09, -1.845598281278016E-01,
2458082.875000000, A.D. 2017-Nov-25 09:00:00.0000,      69.182959,  2.660967416514151E+09,  1.336701239944142E+09, -2.949069847808063E+07, -3.098358946416105E+00,  5.758096774204527E+00,  6.165671944894369E-02,  9.933484709134178E+03,  2.977983797456750E+09, -1.845528519908643E-01,
2458082.916666667, A.D. 2017-Nov-25 10:00:00.0000,      69.182960,  2.660956262355809E+09,  1.336721969044735E+09, -2.949047651877087E+07, -3.098395700977136E+00,  5.758070204475132E+00,  6.165384921075656E-02,  9.933482493008389E+03,  2.977983133078952E+09, -1.845459423310575E-01,
2458082.958333333, A.D. 2017-Nov-25 11:00:00.0000,      69.182961,  2.660945108064956E+09,  1.336742698049503E+09, -2.949025457151353E+07, -3.098432579069465E+00,  5.758043542082532E+00,  6.165002329232561E-02,  9.933480276964787E+03,  2.977982468725794E+09, -1.845391753197347E-01,
2458083.000000000, A.D. 2017-Nov-25 12:00:00.0000,      69.182962,  2.660933953640975E+09,  1.336763426958151E+09, -2.949003263974720E+07, -3.098469677669269E+00,  5.758016807665481E+00,  6.164524440827401E-02,  9.933478061001206E+03,  2.977981804396625E+09, -1.845326283720021E-01,
2458083.041666667, A.D. 2017-Nov-25 13:00:00.0000,      69.182963,  2.660922799082894E+09,  1.336784155770458E+09, -2.948981072688079E+07, -3.098507094446568E+00,  5.757990023185429E+00,  6.163952669790040E-02,  9.933475845114532E+03,  2.977981140090513E+09, -1.845263790398712E-01,
2458083.083333333, A.D. 2017-Nov-25 14:00:00.0000,      69.182964,  2.660911644389396E+09,  1.336804884486286E+09, -2.948958883625108E+07, -3.098544926310228E+00,  5.757963211703370E+00,  6.163289607170874E-02,  9.933473629300732E+03,  2.977980475806247E+09, -1.845205038157061E-01,
2458083.125000000, A.D. 2017-Nov-25 15:00:00.0000,      69.182965,  2.660900489558814E+09,  1.336825613105579E+09, -2.948936697107965E+07, -3.098583267866740E+00,  5.757936397119903E+00,  6.162539033640879E-02,  9.933471413554866E+03,  2.977979811542347E+09, -1.845150768730012E-01,
2458083.166666667, A.D. 2017-Nov-25 16:00:00.0000,      69.182966,  2.660889334589147E+09,  1.336846341628370E+09, -2.948914513443166E+07, -3.098622209828866E+00,  5.757909603882155E+00,  6.161705908263349E-02,  9.933469197871120E+03,  2.977979147297071E+09, -1.845101687749320E-01,
2458083.208333333, A.D. 2017-Nov-25 17:00:00.0000,      69.182967,  2.660878179478080E+09,  1.336867070054782E+09, -2.948892332917213E+07, -3.098661837413585E+00,  5.757882856662321E+00,  6.160796332620411E-02,  9.933466982242866E+03,  2.977978483068431E+09, -1.845058451837089E-01,
2458083.250000000, A.D. 2017-Nov-25 18:00:00.0000,      69.182968,  2.660867024223001E+09,  1.336887798385023E+09, -2.948870155792737E+07, -3.098702228770815E+00,  5.757856180013901E+00,  6.159817490065178E-02,  9.933464766662717E+03,  2.977977818854212E+09, -1.845021656050325E-01,
2458083.291666667, A.D. 2017-Nov-25 19:00:00.0000,      69.182969,  2.660855868821032E+09,  1.336908526619392E+09, -2.948847982304627E+07, -3.098743453485139E+00,  5.757829598012435E+00,  6.158777560571105E-02,  9.933462551122628E+03,  2.977977154652003E+09, -1.844991822023744E-01,
2458083.333333333, A.D. 2017-Nov-25 20:00:00.0000,      69.182970,  2.660844713269063E+09,  1.336929254758270E+09, -2.948825812656748E+07, -3.098785571192023E+00,  5.757803133888498E+00,  6.157685612341135E-02,  9.933460335613956E+03,  2.977976490459212E+09, -1.844969387147962E-01,
2458083.375000000, A.D. 2017-Nov-25 21:00:00.0000,      69.182971,  2.660833557563789E+09,  1.336949982802124E+09, -2.948803647018874E+07, -3.098828630348057E+00,  5.757776809661041E+00,  6.156551472003402E-02,  9.933458120127607E+03,  2.977975826273114E+09, -1.844954695101453E-01,
2458083.416666667, A.D. 2017-Nov-25 22:00:00.0000,      69.182972,  2.660822401701751E+09,  1.336970710751493E+09, -2.948781485524285E+07, -3.098872667191399E+00,  5.757750645779574E+00,  6.155385575836458E-02,  9.933455904654125E+03,  2.977975162090874E+09, -1.844947988024263E-01,
2458083.458333333, A.D. 2017-Nov-25 23:00:00.0000,      69.182973,  2.660811245679384E+09,  1.336991438606988E+09, -2.948759328267789E+07, -3.098917704924123E+00,  5.757724660783626E+00,  6.154198805019195E-02,  9.933453689183831E+03,  2.977974497909588E+09, -1.844949400581247E-01,
2458083.500000000, A.D. 2017-Nov-26 00:00:00.0000,      69.182974,  2.660800089493062E+09,  1.337012166369284E+09, -2.948737175304544E+07, -3.098963753142655E+00,  5.757698870987757E+00,  6.153002308379918E-02,  9.933451473706946E+03,  2.977973833726327E+09, -1.844958956115348E-01,
2458083.541666667, A.D. 2017-Nov-26 01:00:00.0000,      69.182975,  2.660788933139153E+09,  1.337032894039110E+09, -2.948715026649350E+07, -3.099010807536069E+00,  5.757673290199889E+00,  6.151807316500513E-02,  9.933449258213737E+03,  2.977973169538173E+09, -1.844976565036321E-01,
2458083.583333333, A.D. 2017-Nov-26 02:00:00.0000,      69.182976,  2.660777776614062E+09,  1.337053621617238E+09, -2.948692882276708E+07, -3.099058849865006E+00,  5.757647929480059E+00,  6.150624951319505E-02,  9.933447042694645E+03,  2.977972505342257E+09, -1.845002025530939E-01,
